[{"OBJECT_NAME":"STARLINK-1800","OBJECT_ID":"2020-073AG","EPOCH":"2026-03-10T00:00:02.999808","MEAN_MOTION":15.79776144,"ECCENTRICITY":0.00048232,"INCLINATION":53.0392,"RA_OF_ASC_NODE":207.8023,"ARG_OF_PERICENTER":307.6463,"MEAN_ANOMALY":354.6539,"EPHEMERIS_TYPE":0,"CLASSIFICATION_TYPE":"U","NORAD_CAT_ID":46700,"ELEMENT_SET_NO":999,"REV_AT_EPOCH":598,"BSTAR":0.001050296,"MEAN_MOTION_DOT":0.00201242,"MEAN_MOTION_DDOT":0},{"OBJECT_NAME":"CZ-2D DEB","OBJECT_ID":"2005-024L","EPOCH":"2026-03-06T07:38:56.656320","MEAN_MOTION":15.78698644,"ECCENTRICITY":0.00065736,"INCLINATION":97.1694,"RA_OF_ASC_NODE":99.2993,"ARG_OF_PERICENTER":133.8674,"MEAN_ANOMALY":226.3138,"EPHEMERIS_TYPE":0,"CLASSIFICATION_TYPE":"U","NORAD_CAT_ID":35272,"ELEMENT_SET_NO":999,"REV_AT_EPOCH":12318,"BSTAR":0.00064046997,"MEAN_MOTION_DOT":0.00112943,"MEAN_MOTION_DDOT":0}]
